UNKNOWN                 
1 82741U          26008.94754235  .00002356  00000+0  25409-2 0  9994
2 82741 102.8447  58.1454 0206044 205.6461 153.4336 13.66190516600792
UNKNOWN                 
1 82783U          26007.31791481  .00000539  00000+0  15496-2 0  9990
2 82783  90.3388  38.9894 0023104  49.0777 311.2346 13.09046201507701
UNKNOWN                 
1 82798U          26007.20488067  .00002504  00000+0  10990-2 0  9995
2 82798  82.9497 171.3804 0029350  94.9149  78.4119 14.23046412315998
UNKNOWN                 
1 82820U          26008.73095074  .00004532  00000+0  15821-2 0  9993
2 82820  99.7876 178.0630 0049344 297.2240  62.3918 14.35173939629509
UNKNOWN                 
1 82854U          26004.82340184  .00002434  00000+0  19044-2 0  9991
2 82854  82.6894  46.4959 0129665 214.5987 144.6690 13.87914813611001
UNKNOWN                 
1 82873U          26006.96661334  .00003676  00000+0  15925-2 0  9995
2 82873  99.9965 269.5916 0037636 215.1409 144.7282 14.24649918624820
UNKNOWN                 
1 82875U          26008.20079104  .00000511  00000+0  14601-3 0  9990
2 82875  98.6776 355.8998 0377481 206.9876 151.1221 14.15206121548216
UNKNOWN                 
1 82893U          26008.57955541  .00009209  00000+0  34280-2 0  9995
2 82893  98.9621 129.5405 0022925 319.1817  40.7648 14.32109933427819
UNKNOWN                 
1 82912U          25357.12559924  .00003672  00000+0  15171-2 0  9995
2 82912  65.8351 150.3467 0775830 264.1410  87.0766 13.27744111580701
UNKNOWN                 
1 82961U          26007.38364741  .00012315  00000+0  18543-1 0  9990
2 82961  99.8614 165.5687 0408122 300.8943  55.2643 13.24003743559109
UNKNOWN                 
1 82965U          25360.44136887  .00001091  00000+0  15259-2 0  9991
2 82965 100.1151  80.4159 0002424 181.2549 178.8584 13.60034141526311
UNKNOWN                 
1 83903U          25359.90072082  .00000121  00000+0  00000+0 0  9997
2 83903   6.1512 290.5042 0123618 251.9908 284.4052  0.99112280 43797
