CCSDS_OMM_VERS = 2.0
CREATION_DATE  = 
ORIGINATOR     = 

OBJECT_NAME    = UNKNOWN
OBJECT_ID      = 
CENTER_NAME    = EARTH
REF_FRAME      = TEME
TIME_SYSTEM    = UTC
MEAN_ELEMENT_THEORY = SGP/SGP4

EPOCH          = 2026-01-08T22:44:27.659040
MEAN_MOTION    = 13.66190516
ECCENTRICITY   = .0206044
INCLINATION    = 102.8447
RA_OF_ASC_NODE = 58.1454
ARG_OF_PERICENTER = 205.6461
MEAN_ANOMALY   = 153.4336

EPHEMERIS_TYPE = 0
CLASSIFICATION_TYPE = U
NORAD_CAT_ID   = 82741
ELEMENT_SET_NO = 999
REV_AT_EPOCH   = 60079
BSTAR          = .25409E-2
MEAN_MOTION_DOT = .2356E-4
MEAN_MOTION_DDOT = 0

CCSDS_OMM_VERS = 2.0
CREATION_DATE  = 
ORIGINATOR     = 

OBJECT_NAME    = UNKNOWN
OBJECT_ID      = 
CENTER_NAME    = EARTH
REF_FRAME      = TEME
TIME_SYSTEM    = UTC
MEAN_ELEMENT_THEORY = SGP/SGP4

EPOCH          = 2026-01-07T07:37:47.839584
MEAN_MOTION    = 13.09046201
ECCENTRICITY   = .0023104
INCLINATION    = 90.3388
RA_OF_ASC_NODE = 38.9894
ARG_OF_PERICENTER = 49.0777
MEAN_ANOMALY   = 311.2346

EPHEMERIS_TYPE = 0
CLASSIFICATION_TYPE = U
NORAD_CAT_ID   = 82783
ELEMENT_SET_NO = 999
REV_AT_EPOCH   = 50770
BSTAR          = .15496E-2
MEAN_MOTION_DOT = .539E-5
MEAN_MOTION_DDOT = 0

CCSDS_OMM_VERS = 2.0
CREATION_DATE  = 
ORIGINATOR     = 

OBJECT_NAME    = UNKNOWN
OBJECT_ID      = 
CENTER_NAME    = EARTH
REF_FRAME      = TEME
TIME_SYSTEM    = UTC
MEAN_ELEMENT_THEORY = SGP/SGP4

EPOCH          = 2026-01-07T04:55:01.689888
MEAN_MOTION    = 14.23046412
ECCENTRICITY   = .002935
INCLINATION    = 82.9497
RA_OF_ASC_NODE = 171.3804
ARG_OF_PERICENTER = 94.9149
MEAN_ANOMALY   = 78.4119

EPHEMERIS_TYPE = 0
CLASSIFICATION_TYPE = U
NORAD_CAT_ID   = 82798
ELEMENT_SET_NO = 999
REV_AT_EPOCH   = 31599
BSTAR          = .1099E-2
MEAN_MOTION_DOT = .2504E-4
MEAN_MOTION_DDOT = 0

CCSDS_OMM_VERS = 2.0
CREATION_DATE  = 
ORIGINATOR     = 

OBJECT_NAME    = UNKNOWN
OBJECT_ID      = 
CENTER_NAME    = EARTH
REF_FRAME      = TEME
TIME_SYSTEM    = UTC
MEAN_ELEMENT_THEORY = SGP/SGP4

EPOCH          = 2026-01-08T17:32:34.143936
MEAN_MOTION    = 14.35173939
ECCENTRICITY   = .0049344
INCLINATION    = 99.7876
RA_OF_ASC_NODE = 178.0630
ARG_OF_PERICENTER = 297.2240
MEAN_ANOMALY   = 62.3918

EPHEMERIS_TYPE = 0
CLASSIFICATION_TYPE = U
NORAD_CAT_ID   = 82820
ELEMENT_SET_NO = 999
REV_AT_EPOCH   = 62950
BSTAR          = .15821E-2
MEAN_MOTION_DOT = .4532E-4
MEAN_MOTION_DDOT = 0

CCSDS_OMM_VERS = 2.0
CREATION_DATE  = 
ORIGINATOR     = 

OBJECT_NAME    = UNKNOWN
OBJECT_ID      = 
CENTER_NAME    = EARTH
REF_FRAME      = TEME
TIME_SYSTEM    = UTC
MEAN_ELEMENT_THEORY = SGP/SGP4

EPOCH          = 2026-01-04T19:45:41.918976
MEAN_MOTION    = 13.87914813
ECCENTRICITY   = .0129665
INCLINATION    = 82.6894
RA_OF_ASC_NODE = 46.4959
ARG_OF_PERICENTER = 214.5987
MEAN_ANOMALY   = 144.6690

EPHEMERIS_TYPE = 0
CLASSIFICATION_TYPE = U
NORAD_CAT_ID   = 82854
ELEMENT_SET_NO = 999
REV_AT_EPOCH   = 61100
BSTAR          = .19044E-2
MEAN_MOTION_DOT = .2434E-4
MEAN_MOTION_DDOT = 0

CCSDS_OMM_VERS = 2.0
CREATION_DATE  = 
ORIGINATOR     = 

OBJECT_NAME    = UNKNOWN
OBJECT_ID      = 
CENTER_NAME    = EARTH
REF_FRAME      = TEME
TIME_SYSTEM    = UTC
MEAN_ELEMENT_THEORY = SGP/SGP4

EPOCH          = 2026-01-06T23:11:55.392576
MEAN_MOTION    = 14.24649918
ECCENTRICITY   = .0037636
INCLINATION    = 99.9965
RA_OF_ASC_NODE = 269.5916
ARG_OF_PERICENTER = 215.1409
MEAN_ANOMALY   = 144.7282

EPHEMERIS_TYPE = 0
CLASSIFICATION_TYPE = U
NORAD_CAT_ID   = 82873
ELEMENT_SET_NO = 999
REV_AT_EPOCH   = 62482
BSTAR          = .15925E-2
MEAN_MOTION_DOT = .3676E-4
MEAN_MOTION_DDOT = 0

CCSDS_OMM_VERS = 2.0
CREATION_DATE  = 
ORIGINATOR     = 

OBJECT_NAME    = UNKNOWN
OBJECT_ID      = 
CENTER_NAME    = EARTH
REF_FRAME      = TEME
TIME_SYSTEM    = UTC
MEAN_ELEMENT_THEORY = SGP/SGP4

EPOCH          = 2026-01-08T04:49:08.345856
MEAN_MOTION    = 14.15206121
ECCENTRICITY   = .0377481
INCLINATION    = 98.6776
RA_OF_ASC_NODE = 355.8998
ARG_OF_PERICENTER = 206.9876
MEAN_ANOMALY   = 151.1221

EPHEMERIS_TYPE = 0
CLASSIFICATION_TYPE = U
NORAD_CAT_ID   = 82875
ELEMENT_SET_NO = 999
REV_AT_EPOCH   = 54821
BSTAR          = .14601E-3
MEAN_MOTION_DOT = .511E-5
MEAN_MOTION_DDOT = 0

CCSDS_OMM_VERS = 2.0
CREATION_DATE  = 
ORIGINATOR     = 

OBJECT_NAME    = UNKNOWN
OBJECT_ID      = 
CENTER_NAME    = EARTH
REF_FRAME      = TEME
TIME_SYSTEM    = UTC
MEAN_ELEMENT_THEORY = SGP/SGP4

EPOCH          = 2026-01-08T13:54:33.587424
MEAN_MOTION    = 14.32109933
ECCENTRICITY   = .0022925
INCLINATION    = 98.9621
RA_OF_ASC_NODE = 129.5405
ARG_OF_PERICENTER = 319.1817
MEAN_ANOMALY   = 40.7648

EPHEMERIS_TYPE = 0
CLASSIFICATION_TYPE = U
NORAD_CAT_ID   = 82893
ELEMENT_SET_NO = 999
REV_AT_EPOCH   = 42781
BSTAR          = .3428E-2
MEAN_MOTION_DOT = .9209E-4
MEAN_MOTION_DDOT = 0

CCSDS_OMM_VERS = 2.0
CREATION_DATE  = 
ORIGINATOR     = 

OBJECT_NAME    = UNKNOWN
OBJECT_ID      = 
CENTER_NAME    = EARTH
REF_FRAME      = TEME
TIME_SYSTEM    = UTC
MEAN_ELEMENT_THEORY = SGP/SGP4

EPOCH          = 2025-12-23T03:00:51.774336
MEAN_MOTION    = 13.27744111
ECCENTRICITY   = .077583
INCLINATION    = 65.8351
RA_OF_ASC_NODE = 150.3467
ARG_OF_PERICENTER = 264.1410
MEAN_ANOMALY   = 87.0766

EPHEMERIS_TYPE = 0
CLASSIFICATION_TYPE = U
NORAD_CAT_ID   = 82912
ELEMENT_SET_NO = 999
REV_AT_EPOCH   = 58070
BSTAR          = .15171E-2
MEAN_MOTION_DOT = .3672E-4
MEAN_MOTION_DDOT = 0

CCSDS_OMM_VERS = 2.0
CREATION_DATE  = 
ORIGINATOR     = 

OBJECT_NAME    = UNKNOWN
OBJECT_ID      = 
CENTER_NAME    = EARTH
REF_FRAME      = TEME
TIME_SYSTEM    = UTC
MEAN_ELEMENT_THEORY = SGP/SGP4

EPOCH          = 2026-01-07T09:12:27.136224
MEAN_MOTION    = 13.24003743
ECCENTRICITY   = .0408122
INCLINATION    = 99.8614
RA_OF_ASC_NODE = 165.5687
ARG_OF_PERICENTER = 300.8943
MEAN_ANOMALY   = 55.2643

EPHEMERIS_TYPE = 0
CLASSIFICATION_TYPE = U
NORAD_CAT_ID   = 82961
ELEMENT_SET_NO = 999
REV_AT_EPOCH   = 55910
BSTAR          = .18543E-1
MEAN_MOTION_DOT = .12315E-3
MEAN_MOTION_DDOT = 0

CCSDS_OMM_VERS = 2.0
CREATION_DATE  = 
ORIGINATOR     = 

OBJECT_NAME    = UNKNOWN
OBJECT_ID      = 
CENTER_NAME    = EARTH
REF_FRAME      = TEME
TIME_SYSTEM    = UTC
MEAN_ELEMENT_THEORY = SGP/SGP4

EPOCH          = 2025-12-26T10:35:34.270368
MEAN_MOTION    = 13.60034141
ECCENTRICITY   = .0002424
INCLINATION    = 100.1151
RA_OF_ASC_NODE = 80.4159
ARG_OF_PERICENTER = 181.2549
MEAN_ANOMALY   = 178.8584

EPHEMERIS_TYPE = 0
CLASSIFICATION_TYPE = U
NORAD_CAT_ID   = 82965
ELEMENT_SET_NO = 999
REV_AT_EPOCH   = 52631
BSTAR          = .15259E-2
MEAN_MOTION_DOT = .1091E-4
MEAN_MOTION_DDOT = 0

CCSDS_OMM_VERS = 2.0
CREATION_DATE  = 
ORIGINATOR     = 

OBJECT_NAME    = UNKNOWN
OBJECT_ID      = 
CENTER_NAME    = EARTH
REF_FRAME      = TEME
TIME_SYSTEM    = UTC
MEAN_ELEMENT_THEORY = SGP/SGP4

EPOCH          = 2025-12-25T21:37:02.278848
MEAN_MOTION    = 0.99112280
ECCENTRICITY   = .0123618
INCLINATION    = 6.1512
RA_OF_ASC_NODE = 290.5042
ARG_OF_PERICENTER = 251.9908
MEAN_ANOMALY   = 284.4052

EPHEMERIS_TYPE = 0
CLASSIFICATION_TYPE = U
NORAD_CAT_ID   = 83903
ELEMENT_SET_NO = 999
REV_AT_EPOCH   = 4379
BSTAR          = 0
MEAN_MOTION_DOT = .121E-5
MEAN_MOTION_DDOT = 0

